STARLINK-36945          
1 68050U 26041L   26087.16668981 -.00085749  00000+0 -56008-3 0  9996
2 68050  53.1591 329.5775 0000959  61.1320 180.8629 15.75271911  5344
STARLINK-35911          
1 68051U 26041M   26087.16668981  .00047975  00000+0  31580-3 0  9992
2 68051  53.1591 329.5245 0001246  99.4361 168.3420 15.75206619  5305
STARLINK-35808          
1 68052U 26041N   26087.07422202  .00343781  00000+0  21437-2 0  9990
2 68052  53.1589 330.1930 0001918 274.5397  85.5404 15.75379742  4122
STARLINK-36919          
1 68053U 26041P   26087.16668981 -.00074410  00000+0 -48542-3 0  9996
2 68053  53.1589 329.4711 0000423  75.2296 218.2792 15.75244914  5347
STARLINK-36924          
1 68054U 26041Q   26087.16668981  .00020229  00000+0  13589-3 0  9997
2 68054  53.1597 329.9468 0001036  84.9449 336.7930 15.75226919  5344
STARLINK-35998          
1 68055U 26041R   26087.13280828  .00246252  00000+0  15620-2 0  9998
2 68055  53.1592 329.8435 0000744  80.4183 279.6921 15.75272185  4131
STARLINK-36845          
1 68056U 26041S   26087.00002315  .00001991  00000+0  17150-4 0  9999
2 68056  53.1598 330.4538 0000867  96.1212 256.2995 15.75242649  5329
STARLINK-36954          
1 68057U 26041T   26087.15549951  .00136884  00000+0  88025-3 0  9996
2 68057  53.1602 329.9954 0000709  59.1227 300.9862 15.75304086  4133
STARLINK-36899          
1 68058U 26041U   26087.15128923  .00185538  00000+0  11837-2 0  9995
2 68058  53.1604 329.9661 0000876  79.8316 280.2803 15.75324541  4137
STARLINK-36917          
1 68059U 26041V   26087.14224067 -.05976352  00000+0 -57497-1 0  9991
2 68059  53.1588 329.9065 0018404 109.5508 250.7500 15.70609957  4135
STARLINK-36959          
1 68060U 26041W   26087.14675040  .00202080  00000+0  12866-2 0  9999
2 68060  53.1589 329.9347 0001135 143.1098 217.0001 15.75320784  4137
STARLINK-36915          
1 68061U 26041X   26087.25548794  .00380878  00000+0  23655-2 0  9997
2 68061  53.1600 329.1847 0001002  20.7198 339.3863 15.75365642  4151
STARLINK-36952          
1 68062U 26041Y   26087.08751718  .00252794  00000+0  15989-2 0  9997
2 68062  53.1601 330.2811 0000891  76.7876 283.3244 15.75318542  4121
STARLINK-37000          
1 68063U 26041Z   26086.94279948  .00231049  00000+0  14671-2 0  9999
2 68063  53.1602 330.7922 0000968  90.4751 269.6380 15.75294267  4104
STARLINK-36996          
1 68064U 26041AA  26087.16668981 -.00171641  00000+0 -11351-2 0  9999
2 68064  53.1586 329.4165 0000982  83.8750 235.4873 15.75305220  5348
STARLINK-36836          
1 68065U 26041AB  26087.16668981 -.00145509  00000+0 -96069-3 0  9994
2 68065  53.1586 329.4123 0001036  61.8346 259.4351 15.75256854  5346
